[{"OBJECT_NAME":"ONEWEB-0288","OBJECT_ID":"2021-075D","EPOCH":"2025-10-28T13:29:12.382368","MEAN_MOTION":13.12445721,"ECCENTRICITY":0.00018545,"INCLINATION":87.897,"RA_OF_ASC_NODE":36.6668,"ARG_OF_PERICENTER":97.3112,"MEAN_ANOMALY":262.8227,"EPHEMERIS_TYPE":0,"CLASSIFICATION_TYPE":"U","NORAD_CAT_ID":49078,"ELEMENT_SET_NO":999,"REV_AT_EPOCH":20480,"BSTAR":0.0011303056,"MEAN_MOTION_DOT":4.19e-6,"MEAN_MOTION_DDOT":0},{"OBJECT_NAME":"ONEWEB-0289","OBJECT_ID":"2021-075E","EPOCH":"2025-10-28T08:55:59.356128","MEAN_MOTION":13.17648398,"ECCENTRICITY":0.00020731,"INCLINATION":87.9118,"RA_OF_ASC_NODE":51.9804,"ARG_OF_PERICENTER":96.5882,"MEAN_ANOMALY":263.5486,"EPHEMERIS_TYPE":0,"CLASSIFICATION_TYPE":"U","NORAD_CAT_ID":49079,"ELEMENT_SET_NO":999,"REV_AT_EPOCH":20367,"BSTAR":8.0855848e-5,"MEAN_MOTION_DOT":4.4e-7,"MEAN_MOTION_DDOT":0},{"OBJECT_NAME":"ONEWEB-0290","OBJECT_ID":"2021-075F","EPOCH":"2025-10-28T08:17:18.416256","MEAN_MOTION":13.17649065,"ECCENTRICITY":0.00023206,"INCLINATION":87.9123,"RA_OF_ASC_NODE":51.9438,"ARG_OF_PERICENTER":103.2264,"MEAN_ANOMALY":256.9127,"EPHEMERIS_TYPE":0,"CLASSIFICATION_TYPE":"U","NORAD_CAT_ID":49080,"ELEMENT_SET_NO":999,"REV_AT_EPOCH":20308,"BSTAR":8.2467614e-5,"MEAN_MOTION_DOT":4.5e-7,"MEAN_MOTION_DDOT":0},{"OBJECT_NAME":"ONEWEB-0291","OBJECT_ID":"2021-075G","EPOCH":"2025-10-28T13:23:28.856832","MEAN_MOTION":13.17650113,"ECCENTRICITY":0.00017862,"INCLINATION":87.9126,"RA_OF_ASC_NODE":51.9075,"ARG_OF_PERICENTER":88.1706,"MEAN_ANOMALY":271.9631,"EPHEMERIS_TYPE":0,"CLASSIFICATION_TYPE":"U","NORAD_CAT_ID":49081,"ELEMENT_SET_NO":999,"REV_AT_EPOCH":20310,"BSTAR":-3.473879e-6,"MEAN_MOTION_DOT":1.2e-7,"MEAN_MOTION_DDOT":0},{"OBJECT_NAME":"ONEWEB-0293","OBJECT_ID":"2021-075H","EPOCH":"2025-10-28T08:31:52.936320","MEAN_MOTION":13.17649667,"ECCENTRICITY":0.0001828,"INCLINATION":87.9116,"RA_OF_ASC_NODE":51.9726,"ARG_OF_PERICENTER":99.5786,"MEAN_ANOMALY":260.5552,"EPHEMERIS_TYPE":0,"CLASSIFICATION_TYPE":"U","NORAD_CAT_ID":49082,"ELEMENT_SET_NO":999,"REV_AT_EPOCH":20310,"BSTAR":0.0001241416,"MEAN_MOTION_DOT":6.1e-7,"MEAN_MOTION_DDOT":0},{"OBJECT_NAME":"ONEWEB-0294","OBJECT_ID":"2021-075J","EPOCH":"2025-10-28T13:38:33.969408","MEAN_MOTION":13.12444172,"ECCENTRICITY":0.00022482,"INCLINATION":87.8973,"RA_OF_ASC_NODE":36.6661,"ARG_OF_PERICENTER":96.7256,"MEAN_ANOMALY":263.4128,"EPHEMERIS_TYPE":0,"CLASSIFICATION_TYPE":"U","NORAD_CAT_ID":49083,"ELEMENT_SET_NO":999,"REV_AT_EPOCH":20419,"BSTAR":0.0012687407,"MEAN_MOTION_DOT":4.69e-6,"MEAN_MOTION_DDOT":0},{"OBJECT_NAME":"ONEWEB-0295","OBJECT_ID":"2021-075K","EPOCH":"2025-10-28T13:58:41.728224","MEAN_MOTION":13.17648246,"ECCENTRICITY":0.00017112,"INCLINATION":87.9114,"RA_OF_ASC_NODE":51.9321,"ARG_OF_PERICENTER":87.8757,"MEAN_ANOMALY":272.2571,"EPHEMERIS_TYPE":0,"CLASSIFICATION_TYPE":"U","NORAD_CAT_ID":49084,"ELEMENT_SET_NO":999,"REV_AT_EPOCH":20309,"BSTAR":0.00014884058,"MEAN_MOTION_DOT":7.1e-7,"MEAN_MOTION_DDOT":0},{"OBJECT_NAME":"ONEWEB-0296","OBJECT_ID":"2021-075L","EPOCH":"2025-10-28T07:41:12.083136","MEAN_MOTION":13.12441109,"ECCENTRICITY":0.00020103,"INCLINATION":87.8968,"RA_OF_ASC_NODE":36.721,"ARG_OF_PERICENTER":87.7486,"MEAN_ANOMALY":272.3873,"EPHEMERIS_TYPE":0,"CLASSIFICATION_TYPE":"U","NORAD_CAT_ID":49085,"ELEMENT_SET_NO":999,"REV_AT_EPOCH":20416,"BSTAR":6.100062e-6,"MEAN_MOTION_DOT":1.5e-7,"MEAN_MOTION_DDOT":0},{"OBJECT_NAME":"ONEWEB-0297","OBJECT_ID":"2021-075M","EPOCH":"2025-10-28T12:05:07.734336","MEAN_MOTION":13.12443839,"ECCENTRICITY":0.00016808,"INCLINATION":87.8963,"RA_OF_ASC_NODE":36.7191,"ARG_OF_PERICENTER":99.4903,"MEAN_ANOMALY":260.6415,"EPHEMERIS_TYPE":0,"CLASSIFICATION_TYPE":"U","NORAD_CAT_ID":49086,"ELEMENT_SET_NO":999,"REV_AT_EPOCH":20479,"BSTAR":0.00065478869,"MEAN_MOTION_DOT":2.48e-6,"MEAN_MOTION_DDOT":0},{"OBJECT_NAME":"ONEWEB-0298","OBJECT_ID":"2021-075N","EPOCH":"2025-10-28T08:36:56.385216","MEAN_MOTION":13.17649554,"ECCENTRICITY":0.0001639,"INCLINATION":87.9119,"RA_OF_ASC_NODE":51.9728,"ARG_OF_PERICENTER":101.5825,"MEAN_ANOMALY":258.5491,"EPHEMERIS_TYPE":0,"CLASSIFICATION_TYPE":"U","NORAD_CAT_ID":49087,"ELEMENT_SET_NO":999,"REV_AT_EPOCH":20309,"BSTAR":0.00022480871,"MEAN_MOTION_DOT":1.0e-6,"MEAN_MOTION_DDOT":0},{"OBJECT_NAME":"ONEWEB-0299","OBJECT_ID":"2021-075P","EPOCH":"2025-10-28T08:39:10.346688","MEAN_MOTION":13.17648895,"ECCENTRICITY":0.00015886,"INCLINATION":87.9126,"RA_OF_ASC_NODE":51.9306,"ARG_OF_PERICENTER":95.1339,"MEAN_ANOMALY":264.9974,"EPHEMERIS_TYPE":0,"CLASSIFICATION_TYPE":"U","NORAD_CAT_ID":49088,"ELEMENT_SET_NO":999,"REV_AT_EPOCH":20307,"BSTAR":0.00019220602,"MEAN_MOTION_DOT":8.8e-7,"MEAN_MOTION_DDOT":0},{"OBJECT_NAME":"ONEWEB-0300","OBJECT_ID":"2021-075Q","EPOCH":"2025-10-28T08:13:53.830560","MEAN_MOTION":13.12443389,"ECCENTRICITY":0.00015047,"INCLINATION":87.8972,"RA_OF_ASC_NODE":36.7071,"ARG_OF_PERICENTER":110.5992,"MEAN_ANOMALY":249.5298,"EPHEMERIS_TYPE":0,"CLASSIFICATION_TYPE":"U","NORAD_CAT_ID":49089,"ELEMENT_SET_NO":999,"REV_AT_EPOCH":20479,"BSTAR":0.0010141631,"MEAN_MOTION_DOT":3.78e-6,"MEAN_MOTION_DDOT":0},{"OBJECT_NAME":"ONEWEB-0301","OBJECT_ID":"2021-075R","EPOCH":"2025-10-28T13:19:53.715648","MEAN_MOTION":13.12444611,"ECCENTRICITY":0.00015066,"INCLINATION":87.8968,"RA_OF_ASC_NODE":36.668,"ARG_OF_PERICENTER":113.5394,"MEAN_ANOMALY":246.5893,"EPHEMERIS_TYPE":0,"CLASSIFICATION_TYPE":"U","NORAD_CAT_ID":49090,"ELEMENT_SET_NO":999,"REV_AT_EPOCH":20418,"BSTAR":0.00089569662,"MEAN_MOTION_DOT":3.35e-6,"MEAN_MOTION_DDOT":0},{"OBJECT_NAME":"ONEWEB-0302","OBJECT_ID":"2021-075S","EPOCH":"2025-10-28T13:01:10.473312","MEAN_MOTION":13.12443935,"ECCENTRICITY":0.00020577,"INCLINATION":87.8971,"RA_OF_ASC_NODE":36.6781,"ARG_OF_PERICENTER":95.4935,"MEAN_ANOMALY":264.6429,"EPHEMERIS_TYPE":0,"CLASSIFICATION_TYPE":"U","NORAD_CAT_ID":49091,"ELEMENT_SET_NO":999,"REV_AT_EPOCH":20416,"BSTAR":-0.00085314669,"MEAN_MOTION_DOT":-2.94e-6,"MEAN_MOTION_DDOT":0},{"OBJECT_NAME":"ONEWEB-0304","OBJECT_ID":"2021-075T","EPOCH":"2025-10-28T08:02:43.520352","MEAN_MOTION":13.17649512,"ECCENTRICITY":0.0001674,"INCLINATION":87.9125,"RA_OF_ASC_NODE":51.9663,"ARG_OF_PERICENTER":95.2468,"MEAN_ANOMALY":264.8855,"EPHEMERIS_TYPE":0,"CLASSIFICATION_TYPE":"U","NORAD_CAT_ID":49092,"ELEMENT_SET_NO":999,"REV_AT_EPOCH":20304,"BSTAR":0.00018086029,"MEAN_MOTION_DOT":8.3e-7,"MEAN_MOTION_DDOT":0},{"OBJECT_NAME":"ONEWEB-0305","OBJECT_ID":"2021-075U","EPOCH":"2025-10-28T13:21:02.722464","MEAN_MOTION":13.17651014,"ECCENTRICITY":0.00015864,"INCLINATION":87.9127,"RA_OF_ASC_NODE":51.8992,"ARG_OF_PERICENTER":85.9939,"MEAN_ANOMALY":274.1373,"EPHEMERIS_TYPE":0,"CLASSIFICATION_TYPE":"U","NORAD_CAT_ID":49093,"ELEMENT_SET_NO":999,"REV_AT_EPOCH":20310,"BSTAR":0.00040184011,"MEAN_MOTION_DOT":1.69e-6,"MEAN_MOTION_DDOT":0},{"OBJECT_NAME":"ONEWEB-0308","OBJECT_ID":"2021-075V","EPOCH":"2025-10-28T12:51:49.723488","MEAN_MOTION":13.12441916,"ECCENTRICITY":0.00017631,"INCLINATION":87.8976,"RA_OF_ASC_NODE":36.6719,"ARG_OF_PERICENTER":102.436,"MEAN_ANOMALY":257.6966,"EPHEMERIS_TYPE":0,"CLASSIFICATION_TYPE":"U","NORAD_CAT_ID":49094,"ELEMENT_SET_NO":999,"REV_AT_EPOCH":20417,"BSTAR":-0.0007084474,"MEAN_MOTION_DOT":-2.42e-6,"MEAN_MOTION_DDOT":0},{"OBJECT_NAME":"ONEWEB-0309","OBJECT_ID":"2021-075W","EPOCH":"2025-10-28T07:57:51.781248","MEAN_MOTION":13.17648444,"ECCENTRICITY":0.00020884,"INCLINATION":87.9124,"RA_OF_ASC_NODE":51.96,"ARG_OF_PERICENTER":94.5019,"MEAN_ANOMALY":265.6351,"EPHEMERIS_TYPE":0,"CLASSIFICATION_TYPE":"U","NORAD_CAT_ID":49095,"ELEMENT_SET_NO":999,"REV_AT_EPOCH":20304,"BSTAR":0.00013762687,"MEAN_MOTION_DOT":6.6e-7,"MEAN_MOTION_DDOT":0},{"OBJECT_NAME":"ONEWEB-0310","OBJECT_ID":"2021-075X","EPOCH":"2025-10-28T13:12:52.743744","MEAN_MOTION":13.12444005,"ECCENTRICITY":0.00018616,"INCLINATION":87.8962,"RA_OF_ASC_NODE":36.7096,"ARG_OF_PERICENTER":99.0902,"MEAN_ANOMALY":261.0437,"EPHEMERIS_TYPE":0,"CLASSIFICATION_TYPE":"U","NORAD_CAT_ID":49096,"ELEMENT_SET_NO":999,"REV_AT_EPOCH":20480,"BSTAR":0.00052228203,"MEAN_MOTION_DOT":2.01e-6,"MEAN_MOTION_DDOT":0},{"OBJECT_NAME":"ONEWEB-0311","OBJECT_ID":"2021-075Y","EPOCH":"2025-10-28T13:35:36.985056","MEAN_MOTION":13.17651455,"ECCENTRICITY":0.00015035,"INCLINATION":87.9124,"RA_OF_ASC_NODE":51.9103,"ARG_OF_PERICENTER":90.7379,"MEAN_ANOMALY":269.3925,"EPHEMERIS_TYPE":0,"CLASSIFICATION_TYPE":"U","NORAD_CAT_ID":49097,"ELEMENT_SET_NO":999,"REV_AT_EPOCH":20312,"BSTAR":6.0475492e-5,"MEAN_MOTION_DOT":3.6e-7,"MEAN_MOTION_DDOT":0},{"OBJECT_NAME":"ONEWEB-0312","OBJECT_ID":"2021-075Z","EPOCH":"2025-10-28T13:57:29.615328","MEAN_MOTION":13.17649878,"ECCENTRICITY":0.00017871,"INCLINATION":87.9115,"RA_OF_ASC_NODE":51.9363,"ARG_OF_PERICENTER":89.1905,"MEAN_ANOMALY":270.9431,"EPHEMERIS_TYPE":0,"CLASSIFICATION_TYPE":"U","NORAD_CAT_ID":49098,"ELEMENT_SET_NO":999,"REV_AT_EPOCH":20310,"BSTAR":0.00021473904,"MEAN_MOTION_DOT":9.6e-7,"MEAN_MOTION_DDOT":0},{"OBJECT_NAME":"ONEWEB-0313","OBJECT_ID":"2021-075AA","EPOCH":"2025-10-28T08:36:32.739264","MEAN_MOTION":13.17648654,"ECCENTRICITY":0.00016489,"INCLINATION":87.9112,"RA_OF_ASC_NODE":51.9897,"ARG_OF_PERICENTER":96.5487,"MEAN_ANOMALY":263.5832,"EPHEMERIS_TYPE":0,"CLASSIFICATION_TYPE":"U","NORAD_CAT_ID":49099,"ELEMENT_SET_NO":999,"REV_AT_EPOCH":20306,"BSTAR":0.00019609905,"MEAN_MOTION_DOT":8.9e-7,"MEAN_MOTION_DDOT":0},{"OBJECT_NAME":"ONEWEB-0314","OBJECT_ID":"2021-075AB","EPOCH":"2025-10-28T13:16:11.224416","MEAN_MOTION":13.17649034,"ECCENTRICITY":0.00017477,"INCLINATION":87.9126,"RA_OF_ASC_NODE":51.8974,"ARG_OF_PERICENTER":87.0209,"MEAN_ANOMALY":273.1123,"EPHEMERIS_TYPE":0,"CLASSIFICATION_TYPE":"U","NORAD_CAT_ID":49100,"ELEMENT_SET_NO":999,"REV_AT_EPOCH":20306,"BSTAR":4.4696818e-5,"MEAN_MOTION_DOT":3.0e-7,"MEAN_MOTION_DDOT":0}]
